[{"OBJECT_NAME":"STARLINK-3671","OBJECT_ID":"2022-025S","EPOCH":"2026-03-09T05:20:16.096128","MEAN_MOTION":15.06419252,"ECCENTRICITY":0.00012793,"INCLINATION":53.0555,"RA_OF_ASC_NODE":32.9827,"ARG_OF_PERICENTER":85.7443,"MEAN_ANOMALY":274.3692,"EPHEMERIS_TYPE":0,"CLASSIFICATION_TYPE":"U","NORAD_CAT_ID":51972,"ELEMENT_SET_NO":999,"REV_AT_EPOCH":22085,"BSTAR":0.0002181368,"MEAN_MOTION_DOT":2.971e-5,"MEAN_MOTION_DDOT":0},{"OBJECT_NAME":"UNISAT","OBJECT_ID":"2000-057C","EPOCH":"2026-03-09T10:21:07.624800","MEAN_MOTION":15.08907267,"ECCENTRICITY":0.00363457,"INCLINATION":64.544,"RA_OF_ASC_NODE":74.146,"ARG_OF_PERICENTER":312.3548,"MEAN_ANOMALY":47.4494,"EPHEMERIS_TYPE":0,"CLASSIFICATION_TYPE":"U","NORAD_CAT_ID":26547,"ELEMENT_SET_NO":999,"REV_AT_EPOCH":38146,"BSTAR":0.00046170414,"MEAN_MOTION_DOT":7.242e-5,"MEAN_MOTION_DDOT":0}]
